LEMUR-1                 
1 40044U 14033AL  26166.20546177  .00001692  00000+0  19922-3 0  9999
2 40044  97.7873 316.0544 0049737  84.9859 275.7031 14.85239771645176
LEMUR-2-GREENBERG       
1 42837U 17042N   26166.06128882  .00015096  00000+0  50134-3 0  9990
2 42837  97.3809 346.6958 0008732  21.4867 338.6739 15.31272403488064
LEMUR-2-ANDIS           
1 42838U 17042P   26166.22583337  .00016180  00000+0  48133-3 0  9990
2 42838  97.3668 347.0370 0008328  19.6754 340.4809 15.34776051488156
LEMUR-2-MONSON          
1 42839U 17042Q   26166.06545210  .00012514  00000+0  46080-3 0  9997
2 42839  97.4070 346.6755 0006400  13.7742 346.3671 15.27962413487846
LEMUR-2-FURIAUS         
1 42840U 17042R   26166.05358465  .00016079  00000+0  55192-3 0  9996
2 42840  97.3761 344.6485 0008265  75.5728 284.6429 15.30191665487889
LEMUR-2-PETERG          
1 42841U 17042S   26166.01303646  .00018327  00000+0  56204-3 0  9997
2 42841  97.3979 351.0396 0003392   5.4383 354.6896 15.33813565488104
LEMUR-2-DEMBITZ         
1 42842U 17042T   26166.00813615  .00014472  00000+0  49658-3 0  9991
2 42842  97.3815 347.6254 0006944  36.2361 323.9349 15.30235701488011
LEMUR-2-ZACHARY         
1 42845U 17042W   26166.05984189  .00041606  00000+0  73844-3 0  9997
2 42845  97.3590 357.6517 0003066  41.4849 318.6635 15.50105171488870
LEMUR-2-AMANDA-SVANTE   
1 48269U 21034B   26166.13998651  .00030254  00000+0  91393-3 0  9993
2 48269  97.5768 244.3713 0002002 214.3391 145.7722 15.34194789280744
LEMUR-2-SPECIAL-K       
1 48273U 21034F   26166.23021764  .00124981  00000+0  13099-2 0  9998
2 48273  97.5660 252.9458 0004089 229.5282 130.5621 15.63983749281380
LEMUR-2-EMBRIONOVIS     
1 56970U 23084AQ  26166.31436369  .00010273  00000+0  28125-3 0  9993
2 56970  97.6285 310.4414 0007852 327.6940  32.3822 15.37508655167397
LEMUR-2-DEVERILL-M-T    
1 57391U 23100F   26166.02525634  .00024579  00000+0  62408-3 0  9998
2 57391  99.4467 204.1591 0006534  57.0235 303.1631 15.39660768160913
LEMUR-2-BASS            
1 58259U 23174D   26166.13511281  .00016191  00000+0  36828-3 0  9996
2 58259  97.3853 250.8183 0007560 168.7954 191.3464 15.43036556145041
LEMUR-2-JK0903EM1407    
1 58336U 23174CJ  26166.14454485  .00026121  00000+0  44114-3 0  9996
2 58336  97.3929 256.5570 0005795 125.3675 234.8119 15.51590538145416
LEMUR-2-MJR092620       
1 58340U 23174CN  26166.15077593  .00016278  00000+0  34883-3 0  9997
2 58340  97.3985 256.1419 0007067 123.5226 236.6699 15.44812030145337
LEMUR-2-NIMBUS2000      
1 58899U 24022A   26166.12944122  .00015961  00000+0  40191-3 0  9994
2 58899  97.4106  16.1053 0010263 122.2903 237.9339 15.39941513131951
LEMUR-2-VALHALLA        
1 58900U 24022B   26166.12522990  .00015351  00000+0  39065-3 0  9993
2 58900  97.4102  16.0930 0010818 118.5947 241.6389 15.39621046131958
LEMUR-2-CAEL            
1 58903U 24022E   26166.13679465  .00013992  00000+0  34166-3 0  9993
2 58903  97.4086  17.0369 0009279 103.6110 256.6170 15.40916544132020
LEMUR-2-JOHNNYTRUONG    
1 59146U 24043BA  26166.16206079  .00033486  00000+0  40955-3 0  9999
2 59146  97.5372 317.7396 0004747 182.4104 177.7131 15.60331797127726
LEMUR-2-TOMATOKECHUP    
1 60471U 24149D   26166.15296035  .00009833  00000+0  28281-3 0  9996
2 60471  97.3806 248.1941 0001239 179.4575 180.6671 15.35998019101859
LEMUR-2-STELLA          
1 60533U 24149BT  26166.22849976  .00009408  00000+0  55489-3 0  9999
2 60533  97.6746 248.6745 0001687  96.7037 263.4385 15.11775935100206
LEMUR-2-MARHISYAM       
1 60536U 24149BW  26166.27431552  .00008030  00000+0  48143-3 0  9993
2 60536  97.6887 249.1676 0003402 120.5521 239.6044 15.11229205100194
LEMUR-2-AHMED-ASRAR     
1 60576U 24149DN  26166.17799520  .00010193  00000+0  58606-3 0  9996
2 60576  97.7013 251.1557 0001964  46.6054 313.5340 15.12676037100260
LEMUR-2-LLOYD           
1 60577U 24149DP  26166.18585223  .00008511  00000+0  53904-3 0  9998
2 60577  97.6749 247.3133 0004730 146.4360 213.7169 15.09204009100099
LEMUR-2-SQUIRRELCOMM    
1 60578U 24149DQ  26166.19726419  .00004523  00000+0  30509-3 0  9999
2 60578  97.6714 247.1145 0006599  67.7267 292.4660 15.07131677100109
LEMUR-2-SIERRINI        
1 60579U 24149DR  26166.23122109  .00009136  00000+0  55178-3 0  9995
2 60579  97.6850 248.8143 0005690 170.0876 190.0466 15.10913770100161
LEMUR-2-WILSON          
1 62694U 25009CP  26166.15420879  .00002212  00000+0  20671-3 0  9995
2 62694  97.7025 244.6541 0004262  62.5179 297.6474 14.95156419 77052
LEMUR-2-STAR-FOX        
1 62696U 25009CR  26166.16144763  .00006702  00000+0  50936-3 0  9998
2 62696  97.6960 247.7842 0003666 116.2332 243.9270 15.02479158 77251
LEMUR-2-ARIANNA         
1 62699U 25009CU  26166.15976146  .00006715  00000+0  51058-3 0  9998
2 62699  97.6902 247.5589 0003978 122.4942 237.6668 15.02460643 77258
